[{"OBJECT_NAME":"STARLINK-4661","OBJECT_ID":"2022-107AJ","EPOCH":"2026-03-09T19:55:28.713216","MEAN_MOTION":15.08839677,"ECCENTRICITY":0.0001181,"INCLINATION":53.2159,"RA_OF_ASC_NODE":253.5716,"ARG_OF_PERICENTER":87.4091,"MEAN_ANOMALY":272.7036,"EPHEMERIS_TYPE":0,"CLASSIFICATION_TYPE":"U","NORAD_CAT_ID":53732,"ELEMENT_SET_NO":999,"REV_AT_EPOCH":19457,"BSTAR":4.4164919e-5,"MEAN_MOTION_DOT":4.15e-6,"MEAN_MOTION_DDOT":0},{"OBJECT_NAME":"OBJECT J","OBJECT_ID":"2023-091J","EPOCH":"2026-03-09T22:57:45.383328","MEAN_MOTION":15.13201377,"ECCENTRICITY":0.00147906,"INCLINATION":97.519,"RA_OF_ASC_NODE":123.4537,"ARG_OF_PERICENTER":127.2759,"MEAN_ANOMALY":232.9824,"EPHEMERIS_TYPE":0,"CLASSIFICATION_TYPE":"U","NORAD_CAT_ID":57174,"ELEMENT_SET_NO":999,"REV_AT_EPOCH":14862,"BSTAR":0.00032020689,"MEAN_MOTION_DOT":5.634e-5,"MEAN_MOTION_DDOT":0}]
